type,province,city,area,name,lng,lat,street_id,telephone
麻辣烫,湖南省,长沙市,岳麓区,杨国福麻辣烫(财院路店),112.933409,28.207271,0bb30714cd8f68facb213d5e,18182105448
麻辣烫,湖南省,长沙市,岳麓区,友家麻辣烫(达美店),112.919473,28.208797,无数据,18684891322
麻辣烫,湖南省,长沙市,岳麓区,益阳麻辣烫,112.93366,28.206765,ac9b580070045e185dbe86ed,13187040255
麻辣烫,湖南省,长沙市,岳麓区,蛮有味骨汤麻辣烫(达美店),112.920043,28.208932,无数据,13787141537
麻辣烫,湖南省,长沙市,岳麓区,大众麻辣烫,112.917802,28.214741,无数据,15507538936
麻辣烫,湖南省,长沙市,岳麓区,老益阳串串麻辣烫湖大店,112.934432,28.206755,无数据,13187040255
麻辣烫,湖南省,长沙市,岳麓区,益阳麻辣烫,112.917556,28.213279,无数据,无数据
麻辣烫,湖南省,长沙市,岳麓区,烧烤麻辣烫,112.929114,28.213697,8033ae78cee2ba4d25e0a032,无数据
麻辣烫,湖南省,长沙市,岳麓区,爱烫吧,112.918681,28.214404,无数据,无数据
沙县小吃,湖南省,长沙市,岳麓区,沙县小吃,112.935745,28.210418,3a59178f8f4bfe9bf8f0cb54,无数据
沙县小吃,湖南省,长沙市,岳麓区,正宗沙县小吃,112.931611,28.206857,bb7391ade83548533904b192,13960507319
沙县小吃,湖南省,长沙市,岳麓区,沙县小吃(溪口18店),112.918492,28.213461,1663da9ac1e44746b5147fd3,18759708307
沙县小吃,湖南省,长沙市,岳麓区,沙县小吃(溪口村店),112.931313,28.212812,72d0169e8be52a314bcc4a17,13960507319
沙县小吃,湖南省,长沙市,岳麓区,福建沙县小吃,112.938172,28.207357,fa9dc26d8b1f8adb2811d14b,18806023836
麻辣烫,湖南省,长沙市,岳麓区,老店麻辣烫,112.946691,28.205231,a0190eae3eeb09c0b34c49a4,无数据
麻辣烫,湖南省,长沙市,岳麓区,小郡肝串串香,112.961885,28.197414,无数据,无数据
麻辣烫,湖南省,长沙市,岳麓区,3妹陀串串香,112.945091,28.204208,无数据,13487315443
麻辣烫,湖南省,长沙市,岳麓区,大众串串香火锅(望月湖店),112.96309,28.210719,无数据,无数据
麻辣烫,湖南省,长沙市,岳麓区,益阳麻辣烫,112.959731,28.191548,08a999d4777d8192a104646b,无数据
沙县小吃,湖南省,长沙市,岳麓区,正宗沙县小吃,112.95769,28.20784,87961024e9b91b91f33cba4c,15673348688
沙县小吃,湖南省,长沙市,岳麓区,沙县小吃(白云路),112.945704,28.204844,无数据,13017298075
麻辣烫,湖南省,长沙市,天心区,杨国福麻辣烫(三泰街店),112.980364,28.199778,2e0011921a807ed3e215f9e2,18107480248
麻辣烫,湖南省,长沙市,天心区,爱情麻辣烫(南门口店),112.983157,28.191061,ac60a7e1dbed54d60bccdd60,18692240523
麻辣烫,湖南省,长沙市,芙蓉区,罗记麻辣烫(总店),113.000336,28.196412,f633606ae7cb16570a69d99d,(0731)82222510
麻辣烫,湖南省,长沙市,芙蓉区,姥娘麻辣烫(复兴店),112.995544,28.195261,0831eca35a92e9b713293538,13755186026
麻辣烫,湖南省,长沙市,开福区,杨国福麻辣烫(万达店),112.978284,28.204567,3508e9a3bcb6d5db0c0e6b26,18476749567
麻辣烫,湖南省,长沙市,天心区,武汉真味麻辣烫,112.981304,28.189629,cf593061fad26452f119376d,13808435217
麻辣烫,湖南省,长沙市,芙蓉区,烫吖吖麻辣烫(五一路店),112.996557,28.200274,无数据,15608499888
麻辣烫,湖南省,长沙市,开福区,刘大姐骨汤麻辣烫,112.988229,28.207185,无数据,18874021598
麻辣烫,湖南省,长沙市,开福区,爱烫吧骨汤麻辣烫(蔡锷路店),112.987901,28.21232,无数据,18673121982
麻辣烫,湖南省,长沙市,天心区,老街麻辣烫,112.988167,28.192392,无数据,13723898484
麻辣烫,湖南省,长沙市,开福区,正宗重庆骨汤麻辣烫(长沙店),112.982023,28.203467,83dd532d94b65aae82a12e58,15580890163
麻辣烫,湖南省,长沙市,开福区,蛮有味麻辣烫,112.994755,28.209394,无数据,无数据
麻辣烫,湖南省,长沙市,天心区,胡记蓉城串串香(都正街店),112.987348,28.191334,53335ce9aa315a61b04c497a,无数据
麻辣烫,湖南省,长沙市,天心区,红壶麻辣烫,112.977695,28.198139,无数据,18684806929
麻辣烫,湖南省,长沙市,芙蓉区,好再来麻辣烫,112.985349,28.193689,无数据,13107313050
麻辣烫,湖南省,长沙市,芙蓉区,老三彭哥麻辣烫,112.993747,28.19686,45e07311cb22fab4e50738d0,15388041870
麻辣烫,湖南省,长沙市,芙蓉区,姥妈麻辣烫捞(步行街店),112.984035,28.196222,无数据,13755001535
麻辣烫,湖南省,长沙市,开福区,姥娘麻辣烫,112.982247,28.204778,4c2c7ae6594826a6256e9884,18711764406
麻辣烫,湖南省,长沙市,天心区,吉祥麻辣烫(衣铺街店),112.979179,28.195827,60383cc39b1346e722026250,无数据
麻辣烫,湖南省,长沙市,开福区,神龙冒菜(五一分店),112.98105,28.204057,3750944cc09cd1882e47335b,"13575158502,17775850882"
麻辣烫,湖南省,长沙市,天心区,红唇串串香,112.982535,28.198233,无数据,无数据
麻辣烫,湖南省,长沙市,芙蓉区,重庆麻辣烫,112.984142,28.203413,4acfb3abd455169548cc4adc,"13142225598,15274957357"
麻辣烫,湖南省,长沙市,天心区,玉林串串香,112.980299,28.197663,无数据,无数据
麻辣烫,湖南省,长沙市,芙蓉区,冒似很火老成都冒菜,112.993107,28.198849,无数据,无数据
麻辣烫,湖南省,长沙市,芙蓉区,麻辣碗约麻辣烫,112.984919,28.200641,6c543126781730b92bd7abf4,无数据
麻辣烫,湖南省,长沙市,开福区,姊妹串串香秘制烤鸭肠,112.982553,28.204297,无数据,13469269612
麻辣烫,湖南省,长沙市,天心区,小月君肝火锅串串香,112.977884,28.19778,无数据,无数据
麻辣烫,湖南省,长沙市,天心区,钢管厂小郡肝串串香,112.981163,28.199178,无数据,(0731)85461878
麻辣烫,湖南省,长沙市,天心区,严大厨蜀味传统麻辣烫,112.981977,28.190759,无数据,13476299264
麻辣烫,湖南省,长沙市,芙蓉区,君临鱼粉麻辣烫,112.99142,28.197655,无数据,13739055719
麻辣烫,湖南省,长沙市,天心区,功夫荷叶饭,112.979726,28.188104,无数据,13107218605
沙县小吃,湖南省,长沙市,开福区,沙县小吃(芙蓉中路店),112.993269,28.211913,d1f13246bd382a795cbe865e,17350326629
沙县小吃,湖南省,长沙市,天心区,沙县小吃,112.977286,28.18618,无数据,无数据
沙县小吃,湖南省,长沙市,天心区,沙县小吃(坡子街店),112.976622,28.197019,无数据,13787091906
沙县小吃,湖南省,长沙市,芙蓉区,中华美食沙县小吃,112.993327,28.194209,无数据,(0731)83589357
沙县小吃,湖南省,长沙市,天心区,正宗沙县小吃,112.98001,28.199275,无数据,无数据
沙县小吃,湖南省,长沙市,开福区,福建沙县小吃(红墙巷店),112.987918,28.212184,35d398079074d28c306212e9,18974918661
沙县小吃,湖南省,长沙市,芙蓉区,沙县小吃(登隆街),112.984436,28.195288,无数据,"13105937990,18960598222"
沙县小吃,湖南省,长沙市,开福区,沙县小吃(营盘路店),112.99493,28.209424,无数据,15111432231
沙县小吃,湖南省,长沙市,天心区,沙县小吃(城市之心店),112.992569,28.188604,无数据,无数据
沙县小吃,湖南省,长沙市,开福区,沙县小吃(轩辕殿巷),112.981393,28.202013,无数据,无数据
沙县小吃,湖南省,长沙市,芙蓉区,智慧天心(沙县小吃),112.984203,28.204843,无数据,18589030949
沙县小吃,湖南省,长沙市,芙蓉区,沙县小吃(黄泥街),112.987037,28.202015,无数据,无数据
麻辣烫,湖南省,长沙市,芙蓉区,丹妹麻辣烫,113.007924,28.202421,4e2aa9086a59cc6c6fc02cf0,无数据
麻辣烫,湖南省,长沙市,芙蓉区,串香园骨汤麻辣烫(五里牌店),113.019536,28.203865,0687cbf61260b0c7eb56fa26,13707483314
麻辣烫,湖南省,长沙市,芙蓉区,重庆麻辣烫(华天店),113.007012,28.198209,d03db9d6c0a83efbe60738f8,18573717778
麻辣烫,湖南省,长沙市,芙蓉区,自助麻辣烫(燕山街店),113.007687,28.202626,15c561920a2711f31ff74d88,13548662021
麻辣烫,湖南省,长沙市,芙蓉区,爱烫吧骨汤麻辣烫,113.030544,28.193286,无数据,15673787937
麻辣烫,湖南省,长沙市,芙蓉区,爱烫吧骨汤麻辣烫,113.006866,28.197477,8b4b91821695922e88db7386,无数据
麻辣烫,湖南省,长沙市,雨花区,姥妈麻辣烫(左家塘店),113.008002,28.185217,3f698f050dbd119a8bb988a0,13687394616
麻辣烫,湖南省,长沙市,芙蓉区,固汤麻辣烫(恒业巷),113.026465,28.196588,946f6dd264771d81bea240b5,15673787937
麻辣烫,湖南省,长沙市,芙蓉区,麻辣烫蛮有味,113.02829,28.201015,无数据,13187210861
麻辣烫,湖南省,长沙市,芙蓉区,建哥麻辣烫,113.013761,28.202766,b835e2a5b03fcf4a3310af33,15116494021
麻辣烫,湖南省,长沙市,芙蓉区,重庆麻辣烫(金苹果店),113.01491,28.195261,无数据,无数据
麻辣烫,湖南省,长沙市,芙蓉区,益阳麻辣烫,113.023962,28.196033,无数据,13667387757
麻辣烫,湖南省,长沙市,芙蓉区,津市牛肉粉麻辣烫,113.017679,28.209267,6b46b8b506f49c64d12dd661,13787158698
麻辣烫,湖南省,长沙市,雨花区,麻辣演义川蜀老味麻辣烫,113.012047,28.188105,80b3767dad0d09fc1b11d59f,无数据
麻辣烫,湖南省,长沙市,芙蓉区,蜀宗签味串串香(远大一路店),113.024584,28.203676,无数据,17608487588
沙县小吃,湖南省,长沙市,芙蓉区,沙县小吃(德政园店),113.024576,28.196928,8602ae6b56a1a68cb8bd63c4,无数据
沙县小吃,湖南省,长沙市,芙蓉区,福建沙县小吃(李记分店),113.015553,28.198201,f12d856318590c1aeee4a525,13107419199
沙县小吃,湖南省,长沙市,芙蓉区,沙县小吃(袁家岭店),113.004188,28.19967,无数据,无数据
沙县小吃,湖南省,长沙市,芙蓉区,沙县小吃(火车站店),113.015064,28.196761,无数据,18650921067
沙县小吃,湖南省,长沙市,芙蓉区,沙县小吃(人民中路),113.002756,28.191771,01ec8d20fc32736549fc8d0d,"15575992752,15211056661"
沙县小吃,湖南省,长沙市,芙蓉区,沙县小吃(解放东路店),113.007011,28.19626,无数据,无数据
沙县小吃,湖南省,长沙市,芙蓉区,沙县小吃(德政园店),113.02638,28.194981,无数据,"18650921067,18570601870"
沙县小吃,湖南省,长沙市,芙蓉区,沙县小吃黄焖鸡米饭,113.019685,28.204,8649514d19a6ba44c2f1cf0a,0731-89837455
沙县小吃,湖南省,长沙市,芙蓉区,沙县小吃(东二环店),113.02564,28.206481,无数据,18274818370
沙县小吃,湖南省,长沙市,雨花区,沙县小吃集团长沙公司,113.025938,28.188082,b1188d06629c55e917c8f6cb,无数据
沙县小吃,湖南省,长沙市,芙蓉区,沙县小吃(晨启大厦西北),113.028943,28.203165,无数据,18259889825
沙县小吃,湖南省,长沙市,芙蓉区,沙县小吃黄焖鸡米饭,113.013292,28.19274,f2f02bce45cc897e28d7ab6d,13774609396
麻辣烫,湖南省,长沙市,芙蓉区,小猪憨尼麻辣烫(万家丽店),113.038509,28.196956,664c9f1fddcec30882288a80,13307344555
麻辣烫,湖南省,长沙市,芙蓉区,正宗重庆麻辣烫(长房东郡店),113.03517,28.194344,无数据,13203138655
麻辣烫,湖南省,长沙市,芙蓉区,爱尚疯狂双骨瓦罐麻辣烫,113.039195,28.21201,无数据,18229868223
麻辣烫,湖南省,长沙市,芙蓉区,辣一夜麻辣烫,113.046704,28.201863,无数据,15084752810
麻辣烫,湖南省,长沙市,芙蓉区,钢管厂五区小郡肝火锅串串香,113.039308,28.197563,无数据,无数据
麻辣烫,湖南省,长沙市,芙蓉区,小君肝串串香(德政园店),113.031749,28.193664,503336d1ac1809e51d58008e,(0731)82776060
沙县小吃,湖南省,长沙市,芙蓉区,沙县小吃(金科佳苑店),113.04588,28.202314,e72243d8db6887b79868b471,18974835255
沙县小吃,湖南省,长沙市,芙蓉区,沙县小吃(东郡店),113.037707,28.194111,e1ebed71ee97a3d1a2a9345e,"15959834042,18890358301"
沙县小吃,湖南省,长沙市,芙蓉区,沙县小吃(好润佳购物中心东南),113.038387,28.207078,无数据,"15960958122,13508497516"
沙县小吃,湖南省,长沙市,雨花区,沙县小吃(嘉雨路店),113.040573,28.187644,c5dec04fb7fe161500ff2d83,15802595788
沙县小吃,湖南省,长沙市,雨花区,沙县小吃(花桥小区西北),113.053828,28.189064,无数据,15859053983
沙县小吃,湖南省,长沙市,雨花区,沙县小吃(双水湾嘉园店),113.053199,28.191854,55368df7b590b3e6e9f85312,无数据
沙县小吃,湖南省,长沙市,芙蓉区,沙县小吃(百衲广场店),113.036507,28.201097,无数据,13875983793
沙县小吃,湖南省,长沙市,芙蓉区,沙县小吃(嘉雨路),113.041351,28.209906,无数据,无数据
麻辣烫,湖南省,长沙市,芙蓉区,杨国福麻辣烫(农大店),113.085134,28.189475,8fdf5ef2180abf89d1f49e7f,13397300310
麻辣烫,湖南省,长沙市,芙蓉区,正宗益阳麻辣烫,113.085369,28.189015,5972939a1e9957f7eae58293,无数据
麻辣烫,湖南省,长沙市,芙蓉区,大嘴巴极品麻辣烫,113.086221,28.189753,37142ec75c3d2aad33621211,15675840626
麻辣烫,湖南省,长沙市,芙蓉区,麻辣烫,113.082451,28.199327,无数据,无数据
沙县小吃,湖南省,长沙市,芙蓉区,沙县小吃(远大一路),113.061191,28.20668,f03ee12e1118b28003ff2d13,无数据
沙县小吃,湖南省,长沙市,芙蓉区,沙县小吃(张公岭店),113.066444,28.207435,8940ad665c06bc72d81318e7,15616119069
沙县小吃,湖南省,长沙市,芙蓉区,福建沙县小吃,113.065481,28.202621,cbe1c27b4d2c1b52d3ff2378,13787019632
麻辣烫,湖南省,长沙市,岳麓区,周记麻辣烫(裕民小区店),112.939265,28.220828,3f5979875d2bec73b04c49d2,18627597282
麻辣烫,湖南省,长沙市,岳麓区,正宗重庆麻辣烫(欣欣新村店),112.919731,28.217191,0c7679ab10d3a07e0f0a7072,18774985179
麻辣烫,湖南省,长沙市,岳麓区,食尚骨汤麻辣烫(西站店),112.918304,28.219229,8f69253c24ec135c88fc0622,13142275969
麻辣烫,湖南省,长沙市,岳麓区,老益阳麻辣烫,112.918927,28.219355,a407078d056e40598bdb7316,(0731)81812603
麻辣烫,湖南省,长沙市,岳麓区,谢大姐麻辣烫,112.917375,28.220001,无数据,无数据
麻辣烫,湖南省,长沙市,岳麓区,陈记麻辣烫,112.915305,28.218764,ca688dacb48091f66c476045,15898464928
麻辣烫,湖南省,长沙市,岳麓区,蛮有味麻辣烫,112.919486,28.217944,ae6a3e1ecffebe01ff0eb0cb,无数据
麻辣烫,湖南省,长沙市,岳麓区,老香麻辣烫,112.923694,28.221974,5a012c38d43bc173028972d9,15675846089
麻辣烫,湖南省,长沙市,岳麓区,放放麻辣烫,112.928886,28.221025,无数据,"15873135986,15874190486"
麻辣烫,湖南省,长沙市,岳麓区,正宗油炸麻辣烫,112.929127,28.2169,d33e12faee6d36ed99005043,无数据
麻辣烫,湖南省,长沙市,岳麓区,香锅里辣麻辣烫,112.913288,28.223327,无数据,无数据
麻辣烫,湖南省,长沙市,岳麓区,姥娘麻辣捞烫(商学院店),112.923696,28.225592,a2fb8ced8da4030f97f08c57,18692769402
麻辣烫,湖南省,长沙市,岳麓区,老成都冒菜,112.92983,28.221955,9992882c3d1bba1bf7e73b5d,13728629069
麻辣烫,湖南省,长沙市,岳麓区,钢管厂小郡肝串串香,112.914806,28.216783,无数据,无数据
麻辣烫,湖南省,长沙市,岳麓区,小吃货自助麻辣烫,112.918295,28.218941,e3868f211ad7bb1b1e580038,17752861556
麻辣烫,湖南省,长沙市,岳麓区,麻辣烫,112.91582,28.225956,60d74e53078a100d5bf6beb9,无数据
沙县小吃,湖南省,长沙市,岳麓区,沙县小吃(星语林店),112.933561,28.219162,62c6d35b6d259330c8213d02,18960595068
沙县小吃,湖南省,长沙市,岳麓区,沙县小吃(溪口1号店),112.913162,28.237708,06211ef2736185c51b11d585,无数据
沙县小吃,湖南省,长沙市,岳麓区,沙县小吃,112.927563,28.224734,无数据,18350859706
沙县小吃,湖南省,长沙市,岳麓区,正宗沙县小吃(含光路),112.933373,28.242985,7419d9694dfddb4d2cb96d8a,无数据
沙县小吃,湖南省,长沙市,岳麓区,沙县小吃(西站店),112.916998,28.220121,无数据,15580911291
沙县小吃,湖南省,长沙市,岳麓区,正宗沙县小吃,112.929152,28.233941,5f527ee879bcf9c6ab175a09,18658128552
沙县小吃,湖南省,长沙市,岳麓区,老北京炸酱面沙县小吃(时代城店),112.914115,28.225436,b81385bae553fbbc704b8747,无数据
麻辣烫,湖南省,长沙市,岳麓区,湘聚麻辣烫,112.961947,28.230411,无数据,无数据
麻辣烫,湖南省,长沙市,岳麓区,银桥麻辣烫,112.959556,28.234391,8d3ee16be2f0c1fb10293582,18008419107
麻辣烫,湖南省,长沙市,岳麓区,汤立方骨汤麻辣烫,112.961559,28.231021,无数据,18008419107
麻辣烫,湖南省,长沙市,岳麓区,新派麻辣烫(观沙岭店),112.957453,28.24204,无数据,18273139008
麻辣烫,湖南省,长沙市,岳麓区,逗b麻辣烫,112.955925,28.234966,无数据,15674822896
麻辣烫,湖南省,长沙市,岳麓区,情缘麻辣烫,112.963133,28.220333,577a05d1fd52027fcb213d10,18075124967
麻辣烫,湖南省,长沙市,岳麓区,六婆麻辣烫,112.963488,28.220001,无数据,无数据
麻辣烫,湖南省,长沙市,岳麓区,潮派麻辣烫,112.962428,28.229205,8c70737d524f8c690c0e6b77,18673105652
麻辣烫,湖南省,长沙市,岳麓区,蛮有味骨汤麻辣烫,112.960269,28.234109,无数据,18890389291
麻辣烫,湖南省,长沙市,岳麓区,大骨麻辣烫,112.960397,28.234097,无数据,15367864768
麻辣烫,湖南省,长沙市,岳麓区,胡记蓉城串串香火锅(枫林绿洲店),112.95307,28.239132,无数据,15399977290
麻辣烫,湖南省,长沙市,岳麓区,姥娘麻辣捞烫(湘腾广场店),112.942155,28.225429,87b658d67f052026d1f49e08,13687339007
麻辣烫,湖南省,长沙市,岳麓区,麻辣烫桂林卤粉,112.946947,28.228146,82f9125db1b7a0ad7ec8767c,17363614708
麻辣烫,湖南省,长沙市,岳麓区,胡记蓉城串串香(金星店),112.942263,28.22534,7550e1ac4c54203e0a5cb31a,18874740830
麻辣烫,湖南省,长沙市,岳麓区,广福记冒菜(河西步步高店),112.942155,28.225428,f36345b777afcbd725e0a090,(0731)85794008
麻辣烫,湖南省,长沙市,岳麓区,搞肆棍串串香火锅店,112.960937,28.230426,76af643aea227688250bd0bc,无数据
麻辣烫,湖南省,长沙市,岳麓区,功夫荷叶,112.955621,28.234334,无数据,15115806548
麻辣烫,湖南省,长沙市,岳麓区,蓉城串串香火锅,112.942155,28.225428,7a937b626d438e9025d2bbaa,无数据
沙县小吃,湖南省,长沙市,岳麓区,福建沙县小吃,112.95426,28.235494,0908da5cd0d2e4796140a99a,18359077600
沙县小吃,湖南省,长沙市,岳麓区,沙县小吃,112.967272,28.22836,无数据,17759856650
麻辣烫,湖南省,长沙市,开福区,传味麻辣烫(华夏店),112.989551,28.230402,1d065e521d43e48d08ccdd3f,13762704549
麻辣烫,湖南省,长沙市,开福区,爱烫吧骨汤麻辣烫(留芳巷店),112.989103,28.215728,无数据,13507418816
麻辣烫,湖南省,长沙市,开福区,烫吖吖麻辣烫(观园店),112.998433,28.219661,95e171f1fed840ea3a04b125,"15367835626,18507314068"
麻辣烫,湖南省,长沙市,开福区,朝九晚十一麻辣烫(湘春店),112.982132,28.215976,4ae32c418c9426ff59bbbc5e,18673126960
麻辣烫,湖南省,长沙市,开福区,食三姨麻辣烫(华创店),112.995024,28.229672,无数据,无数据
麻辣烫,湖南省,长沙市,开福区,绝味麻辣烫(新河店),112.990249,28.232913,9767275c02601745c91b95db,"(0731)62402816,(0731)82442816"
麻辣烫,湖南省,长沙市,开福区,益阳麻辣烫,112.99578,28.232692,0a633a6a96e290102fe67bfa,"13487587183,18569594915"
麻辣烫,湖南省,长沙市,开福区,川味麻辣烫,112.994271,28.239659,无数据,无数据
麻辣烫,湖南省,长沙市,开福区,薇薇茶饮(北洲文具店),112.989597,28.235959,无数据,13637401952
沙县小吃,湖南省,长沙市,开福区,沙县小吃(湘雅路店),112.991246,28.21909,无数据,无数据
沙县小吃,湖南省,长沙市,开福区,沙县小吃(留芳岭巷),112.992287,28.21555,无数据,无数据
沙县小吃,湖南省,长沙市,开福区,沙县小吃(平沙路),112.98684,28.2423,3a9e3832d17556900c0a70a0,15159106092
沙县小吃,湖南省,长沙市,开福区,福建沙县小吃(凯乐国际店),112.982893,28.225051,dffd4918b1ffec61c71e51b5,无数据
沙县小吃,湖南省,长沙市,开福区,沙县小吃(北辰三角洲奥城D2西),112.985245,28.239859,无数据,无数据
沙县小吃,湖南省,长沙市,开福区,沙县小吃,112.988134,28.239269,d1e909c9c999e578ca09f0c8,无数据
沙县小吃,湖南省,长沙市,开福区,沙县小吃(伍家岭店),112.996284,28.238838,无数据,13548677792
麻辣烫,湖南省,长沙市,开福区,烫吖吖麻辣烫(金帆店),113.02065,28.237517,无数据,13327275639
麻辣烫,湖南省,长沙市,开福区,刘姐麻辣烫,113.007415,28.22598,无数据,15576615521
麻辣烫,湖南省,长沙市,开福区,一品麻辣烫(浏河村巷),113.008661,28.225733,无数据,无数据
麻辣烫,湖南省,长沙市,开福区,背锅侠串串香火锅,113.013293,28.238818,d4baf312cb91523e4054d76a,(0731)84312356
麻辣烫,湖南省,长沙市,开福区,辣么疯狂双骨瓦罐麻辣烫(商贸城路),113.015407,28.240123,无数据,13016163317
麻辣烫,湖南省,长沙市,开福区,冒冒哒冒菜,113.017596,28.239132,820cc7c33e5d2371d518b733,无数据
麻辣烫,湖南省,长沙市,开福区,胖子麻辣烫大王,113.018601,28.233993,无数据,13547315390
麻辣烫,湖南省,长沙市,开福区,辣多辣麻辣烫,113.016333,28.242858,无数据,18774961185
麻辣烫,湖南省,长沙市,开福区,品粤烧鹅骨汤麻辣烫,113.014536,28.24406,无数据,15874134418
沙县小吃,湖南省,长沙市,开福区,沙县小吃,113.008425,28.236657,547141e6916a870c1894c6d7,无数据
沙县小吃,湖南省,长沙市,开福区,正宗沙县小吃(旧货市场店),113.014365,28.235731,184fbd370f3f11f683288a94,18229758869
沙县小吃,湖南省,长沙市,芙蓉区,福建沙县小吃(火炬村店),113.023426,28.220478,f91f5768b3f489d1ed74f8a2,15074808295
沙县小吃,湖南省,长沙市,开福区,沙县小吃(科大店),113.007356,28.226187,bb0e0036f25834bd2806cedc,无数据
沙县小吃,湖南省,长沙市,开福区,沙县小吃(金土地·第一湾西北),113.011175,28.243899,487cf2bd8437b9f7f02d839a,无数据
麻辣烫,湖南省,长沙市,开福区,思益味麻辣烫,113.051472,28.238088,无数据,18073066829
麻辣烫,湖南省,长沙市,开福区,我家冒菜(马栏山),113.051926,28.237653,无数据,13925814309
麻辣烫,湖南省,长沙市,长沙县,爱烫吧骨汤麻辣烫(尚都店),113.084781,28.235145,db2f6661152f6da71f3894a2,18613983102
麻辣烫,湖南省,长沙市,长沙县,益阳麻辣烫,113.068857,28.244367,9af5365948eed10181288af9,13100259373
麻辣烫,湖南省,长沙市,长沙县,久珍麻辣烫,113.090184,28.224837,无数据,17671116958
麻辣烫,湖南省,长沙市,长沙县,味臻正麻辣烫,113.086634,28.238312,无数据,18670493695
麻辣烫,湖南省,长沙市,长沙县,辣么疯狂双骨瓦罐麻辣烫,113.086099,28.238548,无数据,13647413196
麻辣烫,湖南省,长沙市,长沙县,港式风情饮品麻辣烫,113.068422,28.24302,c46ec86119c9a70cefe4a566,"13348681362,13348681352"
沙县小吃,湖南省,长沙市,长沙县,沙县小吃(星沙二区店),113.087705,28.237606,无数据,18373193115
沙县小吃,湖南省,长沙市,长沙县,沙县小吃(大塘巷),113.069552,28.231769,46e427301da3912f14c8f62b,无数据
沙县小吃,湖南省,长沙市,长沙县,沙县小吃(板仓店),113.084737,28.233551,afefb90f1b7caee3028972da,13055163971
沙县小吃,湖南省,长沙市,长沙县,沙县小吃(新长海店),113.081375,28.23334,无数据,18390822016
沙县小吃,湖南省,长沙市,长沙县,沙县小吃(新安路),113.089106,28.220803,dc8e6f4fa67f4407591093ae,无数据
沙县小吃,湖南省,长沙市,长沙县,福建沙县小吃(板桥小区店),113.08957,28.225181,022b376ce120ad2f58109368,13787088695
沙县小吃,湖南省,长沙市,长沙县,沙县小吃星沙大塘小区店,113.06625,28.229112,无数据,无数据
麻辣烫,湖南省,长沙市,岳麓区,觅姐麻辣烫(八方店),112.94971,28.248578,无数据,15139786468
麻辣烫,湖南省,长沙市,岳麓区,爱烫吧骨烫麻辣烫,112.941772,28.252501,无数据,13739058799
麻辣烫,湖南省,长沙市,岳麓区,恋上麻辣烫·奶茶,112.949647,28.248512,5730175b287f1bb01894c666,13574173907
麻辣烫,湖南省,长沙市,岳麓区,益阳麻辣烫,112.941239,28.254017,无数据,15898420177
麻辣烫,湖南省,长沙市,开福区,张亮麻辣烫(世纪城店),112.98517,28.272072,无数据,无数据
麻辣烫,湖南省,长沙市,开福区,食三姨麻辣烫(世纪金源店),112.985802,28.257443,无数据,无数据
麻辣烫,湖南省,长沙市,开福区,黄金麻辣烫,112.986848,28.262202,cc7d4660bb0238a9a1a9349d,无数据
麻辣烫,湖南省,长沙市,开福区,麻辣烫,112.990285,28.253559,无数据,无数据
麻辣烫,湖南省,长沙市,开福区,麻辣烫手工擂茶,112.984569,28.26979,无数据,无数据
麻辣烫,湖南省,长沙市,开福区,老地方旋转自助麻辣烫,112.987774,28.262631,4fbb2095901f4017a8059ddd,15675166367
麻辣烫,湖南省,长沙市,开福区,"唐家解馋坊(鸡蛋仔,串串香)",112.985511,28.273163,7a79b2a0ca80698f90114cef,15016902310
沙县小吃,湖南省,长沙市,开福区,沙县小吃(江湾路),112.985066,28.266559,无数据,15580932799
沙县小吃,湖南省,长沙市,开福区,沙县小吃(7号重建地店),112.987279,28.263732,586652d599dc7c8a4e2fdfef,13341312550
沙县小吃,湖南省,长沙市,开福区,福建沙县小吃(和平花园东),112.989468,28.274194,905931d6b652f1d7dbeced00,无数据
麻辣烫,湖南省,长沙市,开福区,鸭霸王麻辣烫,113.002116,28.261616,64a6b044aed29331c356ac45,(0731)82763969
麻辣烫,湖南省,长沙市,开福区,杨振东麻辣烫(长大店),113.030291,28.247954,无数据,13237418884
麻辣烫,湖南省,长沙市,开福区,大骨麻辣烫(万国城店),113.005962,28.26279,ad9bf59d4fef6b15f7231045,15111319304
麻辣烫,湖南省,长沙市,开福区,细屋里老益阳麻辣烫(长大店),113.030301,28.247955,无数据,"18075137731,15111481583"
沙县小吃,湖南省,长沙市,开福区,沙县小吃,113.020185,28.258877,19ece7521032e521f21937c3,无数据
沙县小吃,湖南省,长沙市,开福区,沙县小吃(珠江花城店),113.002388,28.260592,8a0aa73fd66c080ee6073817,无数据
麻辣烫,湖南省,长沙市,长沙县,益思味麻辣烫,113.060241,28.268658,无数据,17680318251
麻辣烫,湖南省,长沙市,开福区,觅姐麻辣烫,113.044591,28.250139,无数据,无数据
麻辣烫,湖南省,长沙市,长沙县,开心麻辣烫(龙塘店),113.059154,28.270563,无数据,13297480976
麻辣烫,湖南省,长沙市,开福区,好再来麻辣烫(洪西店),113.046115,28.250659,无数据,13924816779
麻辣烫,湖南省,长沙市,开福区,爱烫吧骨汤麻辣烫(洪西店),113.045997,28.249438,无数据,15873707336
沙县小吃,湖南省,长沙市,长沙县,沙县小吃(龙塘店),113.060014,28.269485,0c30173362e86b6e76e5b613,13062101890
沙县小吃,湖南省,长沙市,开福区,正宗沙县小吃(洪西店),113.046598,28.249381,211beb1133ad34b2ea12e448,"18605980092,18659854239"
麻辣烫,湖南省,长沙市,长沙县,安井正宗重庆麻辣烫,113.088827,28.259949,4a8859e37044ffcef4e73bd2,18670369756
麻辣烫,湖南省,长沙市,长沙县,小猪憨尼麻辣烫(星沙通程店),113.087055,28.249431,无数据,18673117558
麻辣烫,湖南省,长沙市,长沙县,疯狂麻辣烫,113.083291,28.266543,无数据,无数据
麻辣烫,湖南省,长沙市,长沙县,周记老益阳麻辣烫,113.089184,28.260104,890301bf6600fc43f503b82e,无数据
麻辣烫,湖南省,长沙市,长沙县,最有味自助麻辣烫,113.084566,28.266495,fb09b4b4af8745778f1a899f,无数据
沙县小吃,湖南省,长沙市,长沙县,福建沙县小吃(湘绣城店),113.071721,28.253457,61522437fa73a161bd484244,无数据
麻辣烫,湖南省,长沙市,望城区,筷乐麻辣烫,112.918004,28.28651,无数据,18606888408
麻辣烫,湖南省,长沙市,望城区,爱烫吧麻辣烫(恒大店),112.915292,28.300688,无数据,18975135632
麻辣烫,湖南省,长沙市,望城区,余记重庆麻辣烫,112.929273,28.286784,无数据,15697482113
麻辣烫,湖南省,长沙市,望城区,正宗益阳麻辣烫,112.911952,28.30151,bdaff1ee9f905782593ac897,15855087653
麻辣烫,湖南省,长沙市,望城区,李记麻辣烫,112.91986,28.303312,无数据,"18773731227,15974203827"
沙县小吃,湖南省,长沙市,望城区,沙县小吃,112.919733,28.287157,bbab7cb53277b857ea56fa72,无数据
沙县小吃,湖南省,长沙市,望城区,福建沙县小吃(普瑞大道),112.922201,28.302092,7484d571ebf23abe5fbe866f,无数据
沙县小吃,湖南省,长沙市,望城区,沙县小吃(金星北路),112.926037,28.288974,无数据,13799122958
沙县小吃,湖南省,长沙市,望城区,沙县小吃,112.936418,28.286577,无数据,18859805983
麻辣烫,湖南省,长沙市,开福区,川香麻辣烫,112.983953,28.282451,bf867bf750cb1e158836eeb6,无数据
沙县小吃,湖南省,长沙市,开福区,正宗沙县小吃,112.971046,28.295099,994a19c73b16cef4102935ff,15959849229
沙县小吃,湖南省,长沙市,开福区,沙县小吃,113.005352,28.299464,2b5f8df810e883f3a3a93442,无数据
麻辣烫,湖南省,长沙市,长沙县,老益阳卤菜麻辣烫,113.071984,28.27959,72021ebdeb75db9fab0dd8b5,13142232729
麻辣烫,湖南省,长沙市,长沙县,成都冒菜(城西店),113.071983,28.279578,无数据,"15211079294,15675170387"
麻辣烫,湖南省,长沙市,长沙县,重庆麻辣烫(师范北步行街店),113.090843,28.299156,无数据,15121171070
沙县小吃,湖南省,长沙市,长沙县,沙县小吃,113.076305,28.278703,2c9bd8f9248ceac582a12e65,13850109926
沙县小吃,湖南省,长沙市,开福区,沙县小吃(绿地海外滩店),112.952199,28.316383,5f11e009199ed0416318091d,无数据
沙县小吃,湖南省,长沙市,开福区,沙县小吃,112.949104,28.330203,234cbcfe08f9f1fff4eafc61,无数据
沙县小吃,湖南省,长沙市,开福区,正宗沙县小吃,112.945465,28.327705,39dfcc08aebcbf7e26d2bb67,无数据
沙县小吃,湖南省,长沙市,开福区,正宗沙县小吃(鹅羊山小区店),112.964021,28.313478,416494341687e5befa2d6183,无数据
麻辣烫,湖南省,长沙市,开福区,益阳麻辣烫(周南中学店),112.974034,28.311301,无数据,13308498045
麻辣烫,湖南省,长沙市,长沙县,益阳徐记麻辣烫,113.087961,28.31228,无数据,18973788780
麻辣烫,湖南省,长沙市,开福区,益阳麻辣烫,112.956513,28.337057,fffa202884e6849e22022044,18673150037
沙县小吃,湖南省,长沙市,开福区,正宗沙县小吃,112.954287,28.335958,def816de536e892015a190fc,无数据
沙县小吃,湖南省,长沙市,开福区,沙县小吃,112.975758,28.344108,6046785e80e54f3717c8f64d,无数据
沙县小吃,湖南省,长沙市,开福区,沙县小吃(沙坪店),113.027721,28.362183,无数据,无数据
麻辣烫,湖南省,长沙市,望城区,串串香(金子湾商业广场店),112.913572,28.374777,无数据,15200350240
type,province,city,area,name,lng,lat,street_id,telephone
麻辣烫,湖南省,长沙市,岳麓区,杨国福麻辣烫(财院路店),112.933409,28.207271,0bb30714cd8f68facb213d5e,18182105448
麻辣烫,湖南省,长沙市,岳麓区,益阳麻辣烫,112.93366,28.206765,ac9b580070045e185dbe86ed,13187040255
麻辣烫,湖南省,长沙市,岳麓区,巴渝捞烫麻辣烫(航天大院店),112.911749,28.210807,无数据,15874243581
麻辣烫,湖南省,长沙市,岳麓区,蛮有味骨汤麻辣烫(达美店),112.919949,28.209181,无数据,13787141537
麻辣烫,湖南省,长沙市,岳麓区,大众麻辣烫,112.917977,28.214698,无数据,15507538936
麻辣烫,湖南省,长沙市,岳麓区,爱烫吧骨汤麻辣烫,112.918769,28.214471,无数据,无数据
麻辣烫,湖南省,长沙市,岳麓区,老益阳串串麻辣烫湖大店,112.934432,28.206755,无数据,13187040255
麻辣烫,湖南省,长沙市,岳麓区,益阳麻辣烫,112.917556,28.213279,无数据,无数据
沙县小吃,湖南省,长沙市,岳麓区,沙县小吃,112.935745,28.210418,3a59178f8f4bfe9bf8f0cb54,无数据
沙县小吃,湖南省,长沙市,岳麓区,正宗沙县小吃,112.931611,28.206857,bb7391ade83548533904b192,13960507319
沙县小吃,湖南省,长沙市,岳麓区,福建沙县小吃,112.938172,28.207357,fa9dc26d8b1f8adb2811d14b,13850823479
沙县小吃,湖南省,长沙市,岳麓区,沙县小吃,112.915432,28.2072,无数据,无数据
麻辣烫,湖南省,长沙市,岳麓区,小郡肝串串香,112.96186,28.197287,无数据,无数据
麻辣烫,湖南省,长沙市,岳麓区,大众串串香火锅(望月湖店),112.96296,28.210679,无数据,无数据
麻辣烫,湖南省,长沙市,岳麓区,益阳麻辣烫,112.959731,28.191548,08a999d4777d8192a104646b,无数据
沙县小吃,湖南省,长沙市,岳麓区,正宗沙县小吃,112.95769,28.20784,87961024e9b91b91f33cba4c,15673348688
麻辣烫,湖南省,长沙市,天心区,杨国福麻辣烫(三泰街店),112.980364,28.199778,2e0011921a807ed3e215f9e2,15211001788
麻辣烫,湖南省,长沙市,天心区,爱情麻辣烫(南门口店),112.983157,28.191061,ac60a7e1dbed54d60bccdd60,18692240523
麻辣烫,湖南省,长沙市,开福区,杨国福麻辣烫(万达店),112.97824,28.205005,3508e9a3bcb6d5db0c0e6b26,18476749567
麻辣烫,湖南省,长沙市,芙蓉区,罗记麻辣烫(总店),113.000336,28.196412,f633606ae7cb16570a69d99d,(0731)82222510
麻辣烫,湖南省,长沙市,天心区,武汉真味麻辣烫,112.981304,28.189629,cf593061fad26452f119376d,13808435217
麻辣烫,湖南省,长沙市,开福区,刘大姐骨汤麻辣烫,112.988166,28.207186,无数据,18874021598
麻辣烫,湖南省,长沙市,天心区,食三姨麻辣烫(7mall店),112.982628,28.200266,2abc778531a6acb50ab93a51,无数据
麻辣烫,湖南省,长沙市,天心区,九索新式麻辣烫(登仁桥店),112.981447,28.190074,无数据,无数据
麻辣烫,湖南省,长沙市,天心区,思益味麻辣烫,112.981426,28.190629,无数据,无数据
麻辣烫,湖南省,长沙市,开福区,蛮有味麻辣烫,112.994787,28.209366,无数据,13507483515
麻辣烫,湖南省,长沙市,芙蓉区,烫吖吖麻辣烫(蔡锷中路店),112.987731,28.200196,无数据,无数据
麻辣烫,湖南省,长沙市,芙蓉区,老三彭哥麻辣烫,112.993745,28.196855,45e07311cb22fab4e50738d0,15388041870
麻辣烫,湖南省,长沙市,开福区,姥娘麻辣烫,112.982247,28.204778,4c2c7ae6594826a6256e9884,18711764406
麻辣烫,湖南省,长沙市,天心区,杨国福麻辣烫(城市之心店),112.992829,28.188769,无数据,无数据
麻辣烫,湖南省,长沙市,芙蓉区,张亮麻辣烫(五一大道店),112.987916,28.200463,无数据,无数据
麻辣烫,湖南省,长沙市,开福区,觅姐麻辣烫,112.981034,28.202474,无数据,无数据
麻辣烫,湖南省,长沙市,雨花区,蛮有味骨汤麻辣烫,112.994652,28.191308,无数据,无数据
麻辣烫,湖南省,长沙市,天心区,吉祥麻辣烫(衣铺街店),112.979031,28.195486,60383cc39b1346e722026250,无数据
麻辣烫,湖南省,长沙市,天心区,胡记蓉城串串香(都正街店),112.987348,28.191334,53335ce9aa315a61b04c497a,"18616956323,13540702655"
麻辣烫,湖南省,长沙市,芙蓉区,姥妈麻辣烫捞(步行街店),112.984035,28.196222,无数据,13755001535
麻辣烫,湖南省,长沙市,天心区,阳少爷成都串串香,112.9832,28.190995,fc7c39b31462e04ed23ce31d,无数据
麻辣烫,湖南省,长沙市,天心区,红唇串串香,112.982535,28.198233,无数据,无数据
麻辣烫,湖南省,长沙市,天心区,钢管厂小郡肝串串香,112.981169,28.199195,无数据,(0731)85461878
麻辣烫,湖南省,长沙市,芙蓉区,重庆麻辣烫,112.984142,28.203413,4acfb3abd455169548cc4adc,"13142225598,15274957357"
麻辣烫,湖南省,长沙市,天心区,熊猫串串香,112.987034,28.191117,无数据,无数据
麻辣烫,湖南省,长沙市,天心区,小月君肝火锅串串香,112.977953,28.197779,无数据,无数据
麻辣烫,湖南省,长沙市,芙蓉区,君临鱼粉麻辣烫,112.991409,28.197675,无数据,13739055719
沙县小吃,湖南省,长沙市,开福区,沙县小吃(芙蓉中路店),112.993269,28.211913,d1f13246bd382a795cbe865e,17350326629
沙县小吃,湖南省,长沙市,天心区,沙县小吃,112.977286,28.18618,无数据,无数据
沙县小吃,湖南省,长沙市,天心区,沙县小吃(坡子街店),112.976622,28.197019,无数据,13787091906
沙县小吃,湖南省,长沙市,芙蓉区,中华美食沙县小吃,112.993323,28.194205,无数据,(0731)83589357
沙县小吃,湖南省,长沙市,天心区,正宗沙县小吃,112.98001,28.199275,无数据,无数据
沙县小吃,湖南省,长沙市,开福区,福建沙县小吃(红墙巷店),112.987918,28.212184,35d398079074d28c306212e9,18974918661
沙县小吃,湖南省,长沙市,芙蓉区,沙县小吃(登隆街),112.984436,28.195288,无数据,"13105937990,18960598222"
沙县小吃,湖南省,长沙市,开福区,沙县小吃,112.978982,28.212412,3def772426b5e8069de321f8,无数据
沙县小吃,湖南省,长沙市,开福区,沙县小吃(营盘路店),112.99493,28.209424,无数据,15111432231
沙县小吃,湖南省,长沙市,天心区,沙县小吃(城市之心店),112.992569,28.188604,无数据,15974283986
沙县小吃,湖南省,长沙市,芙蓉区,智慧天心(沙县小吃),112.984203,28.204843,无数据,18589030949
沙县小吃,湖南省,长沙市,芙蓉区,沙县小吃(黄泥街店),112.987037,28.202015,无数据,无数据
麻辣烫,湖南省,长沙市,芙蓉区,丹妹麻辣烫,113.007924,28.202421,4e2aa9086a59cc6c6fc02cf0,无数据
麻辣烫,湖南省,长沙市,芙蓉区,串香园骨汤麻辣烫(五里牌店),113.019535,28.203859,0687cbf61260b0c7eb56fa26,13707483314
麻辣烫,湖南省,长沙市,芙蓉区,重庆麻辣烫(华天店),113.007012,28.198209,d03db9d6c0a83efbe60738f8,18573717778
麻辣烫,湖南省,长沙市,芙蓉区,自助麻辣烫(燕山街店),113.007687,28.202626,15c561920a2711f31ff74d88,13548662021
麻辣烫,湖南省,长沙市,雨花区,一口锅麻辣烫,113.004408,28.189955,无数据,无数据
麻辣烫,湖南省,长沙市,芙蓉区,爱烫吧骨汤麻辣烫,113.030486,28.19321,无数据,15673787937
麻辣烫,湖南省,长沙市,芙蓉区,鲜小二麻辣烫(紫薇路店),113.029821,28.210401,7fa63899796167ea21026242,18874947461
麻辣烫,湖南省,长沙市,芙蓉区,爱烫吧骨汤麻辣烫,113.00686,28.197476,8b4b91821695922e88db7386,无数据
麻辣烫,湖南省,长沙市,雨花区,姥妈麻辣烫(左家塘店),113.00801,28.185107,3f698f050dbd119a8bb988a0,13687394616
麻辣烫,湖南省,长沙市,芙蓉区,姥娘麻辣烫(五里牌店),113.019535,28.203859,ce6cf65902108e745a3ac8b6,15673751881
麻辣烫,湖南省,长沙市,芙蓉区,建哥麻辣烫,113.013761,28.202766,b835e2a5b03fcf4a3310af33,15116494021
麻辣烫,湖南省,长沙市,芙蓉区,蛮有味麻辣烫,113.025702,28.208574,无数据,无数据
麻辣烫,湖南省,长沙市,雨花区,巧膳麻辣烫,113.014899,28.188955,cb6fae612b4fd5a8f4b916f6,18674394320
麻辣烫,湖南省,长沙市,芙蓉区,萃华苑食街(通程国际店),113.004187,28.194906,bb0c47193a1ab16c28201aca,无数据
麻辣烫,湖南省,长沙市,芙蓉区,益阳麻辣烫,113.023962,28.196033,无数据,13667387757
麻辣烫,湖南省,长沙市,雨花区,麻辣演义川蜀老味麻辣烫,113.011855,28.188092,80b3767dad0d09fc1b11d59f,无数据
麻辣烫,湖南省,长沙市,芙蓉区,重庆麻辣烫(金苹果店),113.01491,28.195261,无数据,无数据
麻辣烫,湖南省,长沙市,芙蓉区,蜀宗签味串串香(远大一路店),113.025186,28.2037,无数据,17608487588
麻辣烫,湖南省,长沙市,芙蓉区,巴渝捞烫尖叫麻辣烫,113.030133,28.213547,无数据,15874243581
沙县小吃,湖南省,长沙市,芙蓉区,沙县小吃(袁家岭店),113.004188,28.19967,无数据,18112875165
沙县小吃,湖南省,长沙市,芙蓉区,沙县小吃(德政园店),113.02638,28.194981,无数据,"18650921067,18570601870"
沙县小吃,湖南省,长沙市,芙蓉区,沙县小吃黄焖鸡米饭,113.019685,28.204,8649514d19a6ba44c2f1cf0a,0731-89837455
沙县小吃,湖南省,长沙市,芙蓉区,沙县小吃(人民中路店),113.002756,28.191771,01ec8d20fc32736549fc8d0d,"15575992752,15211056661"
沙县小吃,湖南省,长沙市,芙蓉区,沙县小吃(东方摩卡店),113.028943,28.203165,无数据,18259889825
沙县小吃,湖南省,长沙市,芙蓉区,沙县小吃黄焖鸡米饭,113.013292,28.19274,f2f02bce45cc897e28d7ab6d,13774609396
沙县小吃,湖南省,长沙市,芙蓉区,沙县小吃(东二环店),113.02564,28.206481,无数据,18274818370
沙县小吃,湖南省,长沙市,芙蓉区,金典沙县小吃,113.01845,28.206023,无数据,无数据
沙县小吃,湖南省,长沙市,雨花区,沙县小吃(东进路),113.025946,28.187967,无数据,无数据
沙县小吃,湖南省,长沙市,芙蓉区,沙县小吃(解放中路店),113.002863,28.196282,无数据,无数据
沙县小吃,湖南省,长沙市,雨花区,沙县小吃集团长沙公司,113.025938,28.188082,b1188d06629c55e917c8f6cb,无数据
沙县小吃,湖南省,长沙市,芙蓉区,沙县小吃(湘华大厦西南),113.018725,28.204022,无数据,无数据
沙县小吃,湖南省,长沙市,芙蓉区,沙县小吃(锦泰商务大厦南),113.024638,28.196933,无数据,无数据
沙县小吃,湖南省,长沙市,雨花区,沙县小吃(人民路店),113.009108,28.190873,无数据,无数据
麻辣烫,湖南省,长沙市,芙蓉区,爱尚疯狂双骨瓦罐麻辣烫,113.03919,28.212008,无数据,18229868223
麻辣烫,湖南省,长沙市,芙蓉区,姥娘麻辣烫(高岭店),113.047603,28.196326,无数据,无数据
麻辣烫,湖南省,长沙市,芙蓉区,统桶发卤粉王(惠泽园店),113.031869,28.201495,无数据,无数据
麻辣烫,湖南省,长沙市,芙蓉区,回头客骨汤麻辣烫,113.046866,28.201881,无数据,13928821683
麻辣烫,湖南省,长沙市,芙蓉区,食尚骨汤麻辣烫,113.042442,28.196569,无数据,无数据
麻辣烫,湖南省,长沙市,芙蓉区,攀成钢小郡肝串串香,113.043214,28.194372,无数据,无数据
麻辣烫,湖南省,长沙市,芙蓉区,四川冒菜,113.031277,28.194426,c29a7b06dc5f798fe0110346,18274961293
麻辣烫,湖南省,长沙市,芙蓉区,非凡海鲜麻辣烫,113.041454,28.196865,无数据,无数据
沙县小吃,湖南省,长沙市,芙蓉区,沙县小吃(金科佳苑店),113.04588,28.202314,e72243d8db6887b79868b471,18974835255
沙县小吃,湖南省,长沙市,芙蓉区,沙县小吃(东郡店),113.037707,28.194111,e1ebed71ee97a3d1a2a9345e,"18890358301,15959834042"
沙县小吃,湖南省,长沙市,芙蓉区,沙县小吃(好润佳购物中心东南),113.038387,28.207078,无数据,"15960958122,13508497516"
沙县小吃,湖南省,长沙市,雨花区,沙县小吃(嘉雨路店),113.040573,28.187644,c5dec04fb7fe161500ff2d83,15802595788
沙县小吃,湖南省,长沙市,雨花区,沙县小吃(花桥小区西北),113.053828,28.189064,无数据,15859053983
沙县小吃,湖南省,长沙市,雨花区,沙县小吃(双水湾嘉园店),113.053199,28.191854,55368df7b590b3e6e9f85312,无数据
沙县小吃,湖南省,长沙市,芙蓉区,沙县小吃(百衲广场店),113.036507,28.201097,无数据,13875983793
沙县小吃,湖南省,长沙市,芙蓉区,沙县小吃(西龙苑店),113.056767,28.214398,无数据,13509317609
沙县小吃,湖南省,长沙市,芙蓉区,沙县小吃(嘉雨路店),113.041351,28.209906,无数据,无数据
沙县小吃,湖南省,长沙市,芙蓉区,沙县小吃(万家丽店),113.035038,28.198021,无数据,无数据
麻辣烫,湖南省,长沙市,岳麓区,周记麻辣烫(裕民小区店),112.939265,28.220828,3f5979875d2bec73b04c49d2,18627597282
麻辣烫,湖南省,长沙市,岳麓区,正宗重庆麻辣烫(欣欣新村店),112.919731,28.217191,0c7679ab10d3a07e0f0a7072,18774985179
麻辣烫,湖南省,长沙市,岳麓区,老益阳麻辣烫(咸嘉店),112.929105,28.228051,无数据,无数据
麻辣烫,湖南省,长沙市,岳麓区,食尚骨汤麻辣烫(西站店),112.918304,28.219229,8f69253c24ec135c88fc0622,13142275969
麻辣烫,湖南省,长沙市,岳麓区,老益阳麻辣烫,112.918927,28.219355,a407078d056e40598bdb7316,无数据
麻辣烫,湖南省,长沙市,岳麓区,谢大姐麻辣烫,112.917488,28.219997,无数据,无数据
麻辣烫,湖南省,长沙市,岳麓区,陈记麻辣烫,112.915159,28.21871,ca688dacb48091f66c476045,15898464928
麻辣烫,湖南省,长沙市,岳麓区,蛮有味麻辣烫,112.919486,28.217944,ae6a3e1ecffebe01ff0eb0cb,无数据
麻辣烫,湖南省,长沙市,岳麓区,小镇来客麻辣烫(商学院店),112.928402,28.223713,无数据,无数据
麻辣烫,湖南省,长沙市,岳麓区,香锅里辣麻辣烫,112.913288,28.223327,无数据,无数据
麻辣烫,湖南省,长沙市,岳麓区,老香麻辣烫,112.923694,28.221974,5a012c38d43bc173028972d9,15675846089
麻辣烫,湖南省,长沙市,岳麓区,放放麻辣烫,112.928886,28.221025,无数据,"15873135986,15874190486"
麻辣烫,湖南省,长沙市,岳麓区,武汉鸭霸王麻辣烫,112.936119,28.215509,无数据,18670309232
麻辣烫,湖南省,长沙市,岳麓区,正宗油炸麻辣烫,112.929127,28.2169,d33e12faee6d36ed99005043,无数据
麻辣烫,湖南省,长沙市,岳麓区,益阳六元麻辣烫,112.927441,28.224063,无数据,无数据
麻辣烫,湖南省,长沙市,岳麓区,小吃货自助麻辣烫,112.918295,28.218941,e3868f211ad7bb1b1e580038,17752861556
沙县小吃,湖南省,长沙市,岳麓区,沙县小吃(星语林店),112.933561,28.219162,62c6d35b6d259330c8213d02,"18960595068,13142205680"
沙县小吃,湖南省,长沙市,岳麓区,沙县小吃(溪口1号店),112.913162,28.237708,06211ef2736185c51b11d585,无数据
沙县小吃,湖南省,长沙市,岳麓区,沙县小吃,112.927563,28.224734,无数据,无数据
沙县小吃,湖南省,长沙市,岳麓区,正宗沙县小吃(含光路店),112.933373,28.242985,7419d9694dfddb4d2cb96d8a,无数据
沙县小吃,湖南省,长沙市,岳麓区,沙县小吃(西站店),112.916998,28.220121,无数据,15580911291
沙县小吃,湖南省,长沙市,岳麓区,正宗沙县小吃,112.929152,28.233941,5f527ee879bcf9c6ab175a09,18658128552
沙县小吃,湖南省,长沙市,岳麓区,沙县小吃(咸嘉湖西路),112.922424,28.220275,0fe3fe11cf2bcc8b79dbd272,无数据
沙县小吃,湖南省,长沙市,岳麓区,老北京炸酱面沙县小吃(时代城店),112.914115,28.225436,b81385bae553fbbc704b8747,无数据
沙县小吃,湖南省,长沙市,岳麓区,沙县小吃,112.916047,28.216993,无数据,无数据
麻辣烫,湖南省,长沙市,岳麓区,汤立方骨汤麻辣烫,112.960867,28.230678,无数据,18008419107
麻辣烫,湖南省,长沙市,岳麓区,情缘麻辣烫,112.963274,28.220133,577a05d1fd52027fcb213d10,18075124967
麻辣烫,湖南省,长沙市,岳麓区,新派麻辣烫(观沙岭店),112.957453,28.24204,无数据,18273139008
麻辣烫,湖南省,长沙市,岳麓区,逗b麻辣烫,112.955925,28.234966,无数据,15674822896
麻辣烫,湖南省,长沙市,岳麓区,大骨麻辣烫,112.960397,28.234097,无数据,15367864768
麻辣烫,湖南省,长沙市,岳麓区,胡记蓉城串串香火锅(枫林绿洲店),112.95307,28.239132,无数据,15399977290
麻辣烫,湖南省,长沙市,岳麓区,麻辣烫桂林卤粉,112.946947,28.228146,82f9125db1b7a0ad7ec8767c,17363614708
麻辣烫,湖南省,长沙市,岳麓区,胡记蓉城串串香(金星店),112.942263,28.22534,7550e1ac4c54203e0a5cb31a,18874740830
麻辣烫,湖南省,长沙市,岳麓区,蓉城串串香火锅,112.942143,28.225448,7a937b626d438e9025d2bbaa,无数据
麻辣烫,湖南省,长沙市,岳麓区,望今宵,112.954128,28.234434,无数据,无数据
麻辣烫,湖南省,长沙市,岳麓区,蜀宗签味串串香,112.961109,28.219305,无数据,无数据
沙县小吃,湖南省,长沙市,岳麓区,福建沙县小吃,112.95426,28.235494,0908da5cd0d2e4796140a99a,18359077600
沙县小吃,湖南省,长沙市,岳麓区,沙县小吃,112.967272,28.22836,无数据,17759856650
麻辣烫,湖南省,长沙市,开福区,传味麻辣烫(华夏店),112.989551,28.230402,1d065e521d43e48d08ccdd3f,13762704549
麻辣烫,湖南省,长沙市,开福区,烫吖吖麻辣烫(观园店),112.998433,28.219661,95e171f1fed840ea3a04b125,"15367835626,18507314068"
麻辣烫,湖南省,长沙市,开福区,爱烫吧骨汤麻辣烫(留芳巷店),112.988957,28.215732,无数据,15273744430
麻辣烫,湖南省,长沙市,开福区,食三姨麻辣烫(华创店),112.995024,28.229672,无数据,无数据
麻辣烫,湖南省,长沙市,开福区,绝味麻辣烫(新河店),112.990249,28.232913,9767275c02601745c91b95db,"(0731)62402816,(0731)82442816"
麻辣烫,湖南省,长沙市,开福区,姥娘麻辣烫,112.998398,28.219703,无数据,无数据
麻辣烫,湖南省,长沙市,开福区,觅姐麻辣烫,112.993705,28.236324,无数据,15116308713
麻辣烫,湖南省,长沙市,开福区,益阳麻辣烫,112.99578,28.232692,0a633a6a96e290102fe67bfa,"13487587183,18569594915"
麻辣烫,湖南省,长沙市,开福区,川味麻辣烫,112.994271,28.239659,无数据,无数据
麻辣烫,湖南省,长沙市,开福区,黄记麻辣烫(东风路店),112.999126,28.221828,无数据,无数据
麻辣烫,湖南省,长沙市,开福区,下一栈私房串串香(伍家岭总店),112.994414,28.231811,无数据,无数据
麻辣烫,湖南省,长沙市,开福区,小郡肝串串香火锅,112.980243,28.215135,99acc6205c113a929ff779da,15873155900
麻辣烫,湖南省,长沙市,开福区,李嘉嘉串串香火锅(华创店),112.995027,28.230213,无数据,(0731)85411377
麻辣烫,湖南省,长沙市,开福区,彭氏酱香饼麻辣烫,112.989262,28.227747,无数据,无数据
沙县小吃,湖南省,长沙市,开福区,沙县小吃(湘雅路店),112.991246,28.21909,无数据,(0731)82461943
沙县小吃,湖南省,长沙市,开福区,沙县小吃(留芳岭巷),112.992287,28.21555,无数据,无数据
沙县小吃,湖南省,长沙市,开福区,沙县小吃(平沙路),112.98684,28.2423,3a9e3832d17556900c0a70a0,15159106092
沙县小吃,湖南省,长沙市,开福区,福建沙县小吃(凯乐国际店),112.982893,28.225051,dffd4918b1ffec61c71e51b5,15259832137
沙县小吃,湖南省,长沙市,开福区,沙县小吃(北辰三角洲奥城D2西),112.985245,28.239859,无数据,无数据
沙县小吃,湖南省,长沙市,开福区,沙县小吃,112.988134,28.239269,d1e909c9c999e578ca09f0c8,无数据
沙县小吃,湖南省,长沙市,开福区,沙县小吃(观园店),112.9984,28.219637,862b74eb6ee2b3b5aeb22a1b,13908474063
麻辣烫,湖南省,长沙市,开福区,烫吖吖麻辣烫(金帆店),113.02065,28.237517,无数据,13327275639
麻辣烫,湖南省,长沙市,开福区,刘姐麻辣烫,113.007415,28.22598,无数据,15576615521
麻辣烫,湖南省,长沙市,开福区,一品麻辣烫(浏河村巷),113.008661,28.225733,无数据,无数据
麻辣烫,湖南省,长沙市,开福区,背锅侠串串香火锅,113.013293,28.238818,d4baf312cb91523e4054d76a,(0731)84312356
麻辣烫,湖南省,长沙市,开福区,姥娘麻辣烫(德雅店),113.008352,28.226163,无数据,无数据
麻辣烫,湖南省,长沙市,开福区,辣么疯狂双骨瓦罐麻辣烫(商贸城路店),113.015457,28.240135,无数据,13016163317
麻辣烫,湖南省,长沙市,开福区,冒冒哒冒菜,113.017596,28.239132,820cc7c33e5d2371d518b733,无数据
麻辣烫,湖南省,长沙市,开福区,左麻右辣特色小吃,113.013615,28.234288,23f42829a6609a800f0e6b4b,13467569626
麻辣烫,湖南省,长沙市,开福区,辣多辣麻辣烫,113.016333,28.242858,无数据,18774961185
麻辣烫,湖南省,长沙市,开福区,品粤烧鹅骨汤麻辣烫,113.014536,28.24406,无数据,15874134418
沙县小吃,湖南省,长沙市,开福区,沙县小吃,113.008425,28.236657,547141e6916a870c1894c6d7,无数据
沙县小吃,湖南省,长沙市,开福区,正宗沙县小吃(旧货市场店),113.014365,28.235731,184fbd370f3f11f683288a94,18229758869
沙县小吃,湖南省,长沙市,开福区,福建沙县小吃,113.022783,28.243364,084d842842d3072378f796eb,无数据
沙县小吃,湖南省,长沙市,芙蓉区,福建沙县小吃(火炬村店),113.022553,28.220483,f91f5768b3f489d1ed74f8a2,15074808295
沙县小吃,湖南省,长沙市,开福区,沙县小吃(万富汇店),113.024682,28.243743,无数据,17352816525
沙县小吃,湖南省,长沙市,开福区,沙县小吃(科大店),113.007356,28.226187,bb0e0036f25834bd2806cedc,无数据
沙县小吃,湖南省,长沙市,开福区,沙县小吃(金土地·第一湾西北),113.011175,28.243899,487cf2bd8437b9f7f02d839a,无数据
麻辣烫,湖南省,长沙市,开福区,思益味麻辣烫(马栏山店),113.05147,28.238083,无数据,18073066829
麻辣烫,湖南省,长沙市,开福区,我家冒菜(马栏山),113.051926,28.237653,无数据,13925814309
沙县小吃,湖南省,长沙市,开福区,沙县小吃(广电店),113.049189,28.243144,e75dbf20b73773ad9d9d68d5,无数据
麻辣烫,湖南省,长沙市,岳麓区,爱烫吧骨汤麻辣烫,112.941427,28.252553,无数据,13739058799
麻辣烫,湖南省,长沙市,岳麓区,觅姐麻辣烫(八方店),112.949827,28.24854,无数据,15139786468
麻辣烫,湖南省,长沙市,岳麓区,牛溜妞麻辣烫,112.95493,28.257509,无数据,无数据
麻辣烫,湖南省,长沙市,岳麓区,恋上麻辣烫·奶茶,112.949647,28.248512,5730175b287f1bb01894c666,13574173907
麻辣烫,湖南省,长沙市,岳麓区,重庆小面(串串香),112.958994,28.250477,无数据,无数据
麻辣烫,湖南省,长沙市,开福区,张亮麻辣烫(世纪城店),112.985141,28.272072,无数据,无数据
麻辣烫,湖南省,长沙市,开福区,食三姨麻辣烫(世纪金源店),112.985802,28.257443,无数据,无数据
麻辣烫,湖南省,长沙市,开福区,黄金麻辣烫,112.986848,28.262202,cc7d4660bb0238a9a1a9349d,无数据
麻辣烫,湖南省,长沙市,开福区,麻辣烫,112.990285,28.253559,无数据,无数据
麻辣烫,湖南省,长沙市,开福区,老地方旋转自助麻辣烫,112.987771,28.262623,4fbb2095901f4017a8059ddd,15675166367
沙县小吃,湖南省,长沙市,开福区,沙县小吃(江湾路店),112.985066,28.266559,无数据,15580932799
沙县小吃,湖南省,长沙市,开福区,沙县小吃(7号重建地店),112.987279,28.263732,586652d599dc7c8a4e2fdfef,13341312550
沙县小吃,湖南省,长沙市,开福区,福建沙县小吃(和平花园东),112.989468,28.274194,905931d6b652f1d7dbeced00,无数据
麻辣烫,湖南省,长沙市,开福区,鸭霸王麻辣烫,113.002116,28.261616,64a6b044aed29331c356ac45,(0731)82763969
麻辣烫,湖南省,长沙市,开福区,杨振东麻辣烫(长大店),113.030291,28.247954,无数据,13237418884
麻辣烫,湖南省,长沙市,开福区,大骨麻辣烫(万国城店),113.005962,28.26279,ad9bf59d4fef6b15f7231045,15111319304
麻辣烫,湖南省,长沙市,开福区,细屋里老益阳麻辣烫(长大店),113.030297,28.247947,无数据,"18075137731,15111481583"
沙县小吃,湖南省,长沙市,开福区,沙县小吃,113.020185,28.258877,19ece7521032e521f21937c3,无数据
麻辣烫,湖南省,长沙市,长沙县,益思味麻辣烫,113.060241,28.268658,无数据,17680318251
麻辣烫,湖南省,长沙市,开福区,觅姐麻辣烫,113.044984,28.25,无数据,无数据
麻辣烫,湖南省,长沙市,开福区,正宗重庆麻辣烫(长沙大学店),113.04237,28.248798,无数据,无数据
麻辣烫,湖南省,长沙市,开福区,好再来麻辣烫(洪西店),113.046146,28.250624,无数据,13924816779
麻辣烫,湖南省,长沙市,长沙县,小转火锅麻辣烫,113.057327,28.271913,无数据,15211103836
沙县小吃,湖南省,长沙市,长沙县,沙县小吃(龙塘店),113.060014,28.269485,0c30173362e86b6e76e5b613,"13874886746,18774897180"
沙县小吃,湖南省,长沙市,开福区,正宗沙县小吃(洪西店),113.046598,28.249381,211beb1133ad34b2ea12e448,"18605980092,18659854239"
麻辣烫,湖南省,长沙市,望城区,老益阳麻辣烫(罐子岭店),112.920922,28.302885,无数据,13973192693
麻辣烫,湖南省,长沙市,望城区,爱烫吧麻辣烫(恒大店),112.915292,28.300688,无数据,18975135632
麻辣烫,湖南省,长沙市,望城区,余记重庆麻辣烫,112.929273,28.286784,无数据,15697482113
麻辣烫,湖南省,长沙市,望城区,正宗益阳麻辣烫,112.911952,28.30151,bdaff1ee9f905782593ac897,15855087653
麻辣烫,湖南省,长沙市,望城区,李记麻辣烫,112.91986,28.303312,无数据,"18773731227,15974203827"
沙县小吃,湖南省,长沙市,望城区,沙县小吃,112.919733,28.287157,bbab7cb53277b857ea56fa72,无数据
沙县小吃,湖南省,长沙市,望城区,福建沙县小吃(普瑞大道),112.922201,28.302092,7484d571ebf23abe5fbe866f,无数据
沙县小吃,湖南省,长沙市,望城区,沙县小吃(金星北路),112.926037,28.288974,无数据,13799122958
沙县小吃,湖南省,长沙市,望城区,沙县小吃,112.936418,28.286577,无数据,18859805983
沙县小吃,湖南省,长沙市,望城区,沙县小吃,112.933857,28.303761,无数据,无数据
沙县小吃,湖南省,长沙市,望城区,林记沙县小吃,112.952379,28.277205,无数据,无数据
麻辣烫,湖南省,长沙市,开福区,川香麻辣烫,112.984016,28.282642,bf867bf750cb1e158836eeb6,无数据
麻辣烫,湖南省,长沙市,开福区,好呷麻辣烫,112.982216,28.282965,无数据,无数据
沙县小吃,湖南省,长沙市,开福区,正宗沙县小吃,112.971046,28.295099,994a19c73b16cef4102935ff,15959849229
沙县小吃,湖南省,长沙市,开福区,沙县小吃,113.005352,28.299464,2b5f8df810e883f3a3a93442,无数据
沙县小吃,湖南省,长沙市,开福区,沙县小吃(绿地海外滩店),112.952199,28.316383,5f11e009199ed0416318091d,无数据
沙县小吃,湖南省,长沙市,开福区,沙县小吃,112.949104,28.330203,234cbcfe08f9f1fff4eafc61,无数据
沙县小吃,湖南省,长沙市,开福区,正宗沙县小吃,112.945465,28.327705,39dfcc08aebcbf7e26d2bb67,无数据
沙县小吃,湖南省,长沙市,开福区,正宗沙县小吃(鹅羊山小区店),112.964021,28.313478,416494341687e5befa2d6183,无数据
麻辣烫,湖南省,长沙市,开福区,益阳麻辣烫(周南中学店),112.974034,28.311301,无数据,13308498045
沙县小吃,湖南省,长沙市,开福区,沙县小吃老北京炸酱面,113.005293,28.308318,a8b7d1b2f32f515eacee7a7c,无数据
麻辣烫,湖南省,长沙市,开福区,益阳麻辣烫,112.956513,28.337057,fffa202884e6849e22022044,18673150037
沙县小吃,湖南省,长沙市,开福区,正宗沙县小吃,112.954287,28.335958,def816de536e892015a190fc,无数据
沙县小吃,湖南省,长沙市,开福区,沙县小吃,112.975758,28.344108,6046785e80e54f3717c8f64d,无数据
沙县小吃,湖南省,长沙市,开福区,沙县小吃(沙坪店),113.027721,28.362183,无数据,无数据
